[Satellite]
VERSION=1.1
NAME=MOLNIYA 2-13
NICKNAME=MOLNIYA 2-13
TLE1=1 08015U 75063A   18020.82408729  .00003922  00000-0  42896-3 0  9994
TLE2=2 08015  61.6927  96.1953 7511129 275.6441  11.4023  2.01034283311701
